OBJECT_NAME,OBJECT_ID,EPOCH,MEAN_MOTION,ECCENTRICITY,INCLINATION,RA_OF_ASC_NODE,ARG_OF_PERICENTER,MEAN_ANOMALY,EPHEMERIS_TYPE,CLASSIFICATION_TYPE,NORAD_CAT_ID,ELEMENT_SET_NO,REV_AT_EPOCH,BSTAR,MEAN_MOTION_DOT,MEAN_MOTION_DDOT
SAUDISAT 1C (SO-50),2002-058C,2026-07-04T10:01:35.748768,14.83083246,.00748199,64.5521,75.6740,259.2514,100.0163,0,U,27607,999,26701,.14407648E-3,.1077E-4,0
SAUDISAT 2,2004-025F,2026-07-04T06:28:41.048256,14.56693820,.00235565,98.5512,185.6936,243.0600,116.8191,0,U,28371,999,16823,.7954649E-4,.307E-5,0
SAUDISAT 3,2007-012B,2026-07-04T14:22:51.078720,14.71436545,.00148723,98.1462,136.0119,166.9259,193.2336,0,U,31118,999,3030,.76888472E-4,.426E-5,0
PISAT,2016-059B,2026-07-04T10:41:07.732896,14.69015535,.0029785,97.8184,185.1567,147.8327,212.4704,0,U,41784,999,52227,.21170187E-3,.1202E-4,0
FLYING LAPTOP,2017-042G,2026-07-04T15:34:50.421216,15.01257840,.00199282,97.4771,340.5188,66.0616,294.2694,0,U,42831,999,48907,.22589085E-3,.2857E-4,0
SALSAT,2020-068K,2026-07-04T11:27:58.980672,15.30057656,.00082082,97.8855,189.5980,234.4468,125.6006,0,U,46495,999,31800,.47010278E-3,.13616E-3,0
